{
  "norad_id": 64011,
  "name": "STARLINK-34193",
  "history": [
    {
      "epoch": "2026-03-28T18:59:18.066048",
      "apogee_km": 484.57896345402514,
      "perigee_km": 481.2903145960072,
      "latitude_deg": 4.935556060560971,
      "longitude_deg": -62.94659327995032,
      "semi_major_axis_km": 6861.071639025015,
      "eccentricity": 0.00023966,
      "inclination_deg": 42.9983,
      "raan_deg": 250.3394,
      "arg_perigee_deg": 272.9334,
      "mean_anomaly_deg": 87.1243,
      "mean_motion_rev_day": 15.27618225
    }
  ]
}