{"fetched_at":"2026-03-29T16:36:15Z","count":15609,"tles":[{"name":"STARLINK-34193","line1":"1 64011U 25101T   26087.79118132  .00030947  00000+0  11280-2 0  9992","line2":"2 64011  42.9983 250.3394 0002396 272.9334  87.1243 15.27618225 49978","category":"Starlink"}]}